CCSDS_OMM_VERS = 2.0
CREATION_DATE  = 
ORIGINATOR     = 

OBJECT_NAME    = SL-14 R/B
OBJECT_ID      = 1986-046B
CENTER_NAME    = EARTH
REF_FRAME      = TEME
TIME_SYSTEM    = UTC
MEAN_ELEMENT_THEORY = SGP/SGP4

EPOCH          = 2026-02-21T04:05:35.183040
MEAN_MOTION    = 14.85573048
ECCENTRICITY   = .0021574
INCLINATION    = 82.4795
RA_OF_ASC_NODE = 95.7945
ARG_OF_PERICENTER = 283.3704
MEAN_ANOMALY   = 76.5107

EPHEMERIS_TYPE = 0
CLASSIFICATION_TYPE = U
NORAD_CAT_ID   = 16792
ELEMENT_SET_NO = 999
REV_AT_EPOCH   = 12395
BSTAR          = .42316E-4
MEAN_MOTION_DOT = .391E-5
MEAN_MOTION_DDOT = 0

CCSDS_OMM_VERS = 2.0
CREATION_DATE  = 
ORIGINATOR     = 

OBJECT_NAME    = SL-14 R/B
OBJECT_ID      = 1986-055B
CENTER_NAME    = EARTH
REF_FRAME      = TEME
TIME_SYSTEM    = UTC
MEAN_ELEMENT_THEORY = SGP/SGP4

EPOCH          = 2026-02-21T07:14:25.740384
MEAN_MOTION    = 14.85625347
ECCENTRICITY   = .0019592
INCLINATION    = 82.5229
RA_OF_ASC_NODE = 142.0745
ARG_OF_PERICENTER = 30.5577
MEAN_ANOMALY   = 32.2144

EPHEMERIS_TYPE = 0
CLASSIFICATION_TYPE = U
NORAD_CAT_ID   = 16882
ELEMENT_SET_NO = 999
REV_AT_EPOCH   = 11693
BSTAR          = .50408E-4
MEAN_MOTION_DOT = .462E-5
MEAN_MOTION_DDOT = 0

CCSDS_OMM_VERS = 2.0
CREATION_DATE  = 
ORIGINATOR     = 

OBJECT_NAME    = AJISAI (EGS)
OBJECT_ID      = 1986-061A
CENTER_NAME    = EARTH
REF_FRAME      = TEME
TIME_SYSTEM    = UTC
MEAN_ELEMENT_THEORY = SGP/SGP4

EPOCH          = 2026-02-21T11:58:36.770016
MEAN_MOTION    = 12.44515393
ECCENTRICITY   = .0011233
INCLINATION    = 50.0085
RA_OF_ASC_NODE = 143.1345
ARG_OF_PERICENTER = 245.2564
MEAN_ANOMALY   = 208.9353

EPHEMERIS_TYPE = 0
CLASSIFICATION_TYPE = U
NORAD_CAT_ID   = 16908
ELEMENT_SET_NO = 999
REV_AT_EPOCH   = 46598
BSTAR          = .14403E-3
MEAN_MOTION_DOT = -.77E-6
MEAN_MOTION_DDOT = 0

CCSDS_OMM_VERS = 2.0
CREATION_DATE  = 
ORIGINATOR     = 

OBJECT_NAME    = COSMOS 1812
OBJECT_ID      = 1987-003A
CENTER_NAME    = EARTH
REF_FRAME      = TEME
TIME_SYSTEM    = UTC
MEAN_ELEMENT_THEORY = SGP/SGP4

EPOCH          = 2026-02-21T12:03:03.117024
MEAN_MOTION    = 16.04742280
ECCENTRICITY   = .000443
INCLINATION    = 82.4738
RA_OF_ASC_NODE = 214.1277
ARG_OF_PERICENTER = 294.7868
MEAN_ANOMALY   = 65.2952

EPHEMERIS_TYPE = 0
CLASSIFICATION_TYPE = U
NORAD_CAT_ID   = 17295
ELEMENT_SET_NO = 999
REV_AT_EPOCH   = 14187
BSTAR          = .79893E-3
MEAN_MOTION_DOT = .533763E-2
MEAN_MOTION_DDOT = .13256E-3

CCSDS_OMM_VERS = 2.0
CREATION_DATE  = 
ORIGINATOR     = 

OBJECT_NAME    = SL-14 R/B
OBJECT_ID      = 1987-024B
CENTER_NAME    = EARTH
REF_FRAME      = TEME
TIME_SYSTEM    = UTC
MEAN_ELEMENT_THEORY = SGP/SGP4

EPOCH          = 2026-02-21T03:25:24.762144
MEAN_MOTION    = 14.86115329
ECCENTRICITY   = .00171543
INCLINATION    = 82.5270
RA_OF_ASC_NODE = 108.3182
ARG_OF_PERICENTER = 319.2822
MEAN_ANOMALY   = 40.7111

EPHEMERIS_TYPE = 0
CLASSIFICATION_TYPE = U
NORAD_CAT_ID   = 17567
ELEMENT_SET_NO = 999
REV_AT_EPOCH   = 8567
BSTAR          = .42872056E-4
MEAN_MOTION_DOT = .401E-5
MEAN_MOTION_DDOT = 0

CCSDS_OMM_VERS = 2.0
CREATION_DATE  = 
ORIGINATOR     = 

OBJECT_NAME    = COSMOS 1833
OBJECT_ID      = 1987-027A
CENTER_NAME    = EARTH
REF_FRAME      = TEME
TIME_SYSTEM    = UTC
MEAN_ELEMENT_THEORY = SGP/SGP4

EPOCH          = 2026-02-21T07:05:33.070560
MEAN_MOTION    = 14.13057238
ECCENTRICITY   = .0024823
INCLINATION    = 70.9233
RA_OF_ASC_NODE = 0.4715
ARG_OF_PERICENTER = 236.9789
MEAN_ANOMALY   = 122.8947

EPHEMERIS_TYPE = 0
CLASSIFICATION_TYPE = U
NORAD_CAT_ID   = 17589
ELEMENT_SET_NO = 999
REV_AT_EPOCH   = 800
BSTAR          = -.12554E-4
MEAN_MOTION_DOT = -.72E-6
MEAN_MOTION_DDOT = 0

CCSDS_OMM_VERS = 2.0
CREATION_DATE  = 
ORIGINATOR     = 

OBJECT_NAME    = SL-16 R/B
OBJECT_ID      = 1987-027B
CENTER_NAME    = EARTH
REF_FRAME      = TEME
TIME_SYSTEM    = UTC
MEAN_ELEMENT_THEORY = SGP/SGP4

EPOCH          = 2026-02-21T04:12:45.192384
MEAN_MOTION    = 14.17165534
ECCENTRICITY   = .00043
INCLINATION    = 71.0038
RA_OF_ASC_NODE = 311.2954
ARG_OF_PERICENTER = 173.1382
MEAN_ANOMALY   = 186.9802

EPHEMERIS_TYPE = 0
CLASSIFICATION_TYPE = U
NORAD_CAT_ID   = 17590
ELEMENT_SET_NO = 999
REV_AT_EPOCH   = 1300
BSTAR          = .14799E-3
MEAN_MOTION_DOT = .251E-5
MEAN_MOTION_DDOT = 0

CCSDS_OMM_VERS = 2.0
CREATION_DATE  = 
ORIGINATOR     = 

OBJECT_NAME    = SL-14 R/B
OBJECT_ID      = 1987-038B
CENTER_NAME    = EARTH
REF_FRAME      = TEME
TIME_SYSTEM    = UTC
MEAN_ELEMENT_THEORY = SGP/SGP4

EPOCH          = 2026-02-21T04:42:54.143136
MEAN_MOTION    = 14.85352882
ECCENTRICITY   = .0018237
INCLINATION    = 82.5031
RA_OF_ASC_NODE = 312.3431
ARG_OF_PERICENTER = 215.6864
MEAN_ANOMALY   = 144.3134

EPHEMERIS_TYPE = 0
CLASSIFICATION_TYPE = U
NORAD_CAT_ID   = 17912
ELEMENT_SET_NO = 999
REV_AT_EPOCH   = 7678
BSTAR          = .46742E-4
MEAN_MOTION_DOT = .427E-5
MEAN_MOTION_DDOT = 0

CCSDS_OMM_VERS = 2.0
CREATION_DATE  = 
ORIGINATOR     = 

OBJECT_NAME    = COSMOS 1844
OBJECT_ID      = 1987-041A
CENTER_NAME    = EARTH
REF_FRAME      = TEME
TIME_SYSTEM    = UTC
MEAN_ELEMENT_THEORY = SGP/SGP4

EPOCH          = 2026-02-21T11:44:54.046752
MEAN_MOTION    = 14.14551370
ECCENTRICITY   = .0029193
INCLINATION    = 70.8984
RA_OF_ASC_NODE = 68.3466
ARG_OF_PERICENTER = 43.3748
MEAN_ANOMALY   = 316.9664

EPHEMERIS_TYPE = 0
CLASSIFICATION_TYPE = U
NORAD_CAT_ID   = 17973
ELEMENT_SET_NO = 999
REV_AT_EPOCH   = 129
BSTAR          = .11395E-3
MEAN_MOTION_DOT = .171E-5
MEAN_MOTION_DDOT = 0

CCSDS_OMM_VERS = 2.0
CREATION_DATE  = 
ORIGINATOR     = 

OBJECT_NAME    = SL-14 R/B
OBJECT_ID      = 1987-055B
CENTER_NAME    = EARTH
REF_FRAME      = TEME
TIME_SYSTEM    = UTC
MEAN_ELEMENT_THEORY = SGP/SGP4

EPOCH          = 2026-02-21T07:27:51.385824
MEAN_MOTION    = 14.85607116
ECCENTRICITY   = .0022211
INCLINATION    = 82.5016
RA_OF_ASC_NODE = 4.4637
ARG_OF_PERICENTER = 69.1328
MEAN_ANOMALY   = 291.2263

EPHEMERIS_TYPE = 0
CLASSIFICATION_TYPE = U
NORAD_CAT_ID   = 18153
ELEMENT_SET_NO = 999
REV_AT_EPOCH   = 6750
BSTAR          = .58085E-4
MEAN_MOTION_DOT = .529E-5
MEAN_MOTION_DDOT = 0

CCSDS_OMM_VERS = 2.0
CREATION_DATE  = 
ORIGINATOR     = 

OBJECT_NAME    = COSMOS 1867
OBJECT_ID      = 1987-060A
CENTER_NAME    = EARTH
REF_FRAME      = TEME
TIME_SYSTEM    = UTC
MEAN_ELEMENT_THEORY = SGP/SGP4

EPOCH          = 2026-02-21T05:36:03.485952
MEAN_MOTION    = 14.31500200
ECCENTRICITY   = .0014264
INCLINATION    = 65.0126
RA_OF_ASC_NODE = 352.7887
ARG_OF_PERICENTER = 277.7452
MEAN_ANOMALY   = 82.2013

EPHEMERIS_TYPE = 0
CLASSIFICATION_TYPE = U
NORAD_CAT_ID   = 18187
ELEMENT_SET_NO = 999
REV_AT_EPOCH   = 1758
BSTAR          = .25775E-4
MEAN_MOTION_DOT = -.32E-6
MEAN_MOTION_DDOT = 0

CCSDS_OMM_VERS = 2.0
CREATION_DATE  = 
ORIGINATOR     = 

OBJECT_NAME    = SL-14 R/B
OBJECT_ID      = 1988-001B
CENTER_NAME    = EARTH
REF_FRAME      = TEME
TIME_SYSTEM    = UTC
MEAN_ELEMENT_THEORY = SGP/SGP4

EPOCH          = 2026-02-21T10:33:25.349472
MEAN_MOTION    = 14.85505760
ECCENTRICITY   = .0016715
INCLINATION    = 82.5120
RA_OF_ASC_NODE = 210.6419
ARG_OF_PERICENTER = 294.1505
MEAN_ANOMALY   = 65.7963

EPHEMERIS_TYPE = 0
CLASSIFICATION_TYPE = U
NORAD_CAT_ID   = 18749
ELEMENT_SET_NO = 999
REV_AT_EPOCH   = 3961
BSTAR          = .56064E-4
MEAN_MOTION_DOT = .509E-5
MEAN_MOTION_DDOT = 0

