SL-14 R/B               
1 16792U 86046B   26052.17054610  .00000391  00000+0  42316-4 0  9990
2 16792  82.4795  95.7945 0021574 283.3704  76.5107 14.85573048123958
SL-14 R/B               
1 16882U 86055B   26052.30168681  .00000462  00000+0  50408-4 0  9999
2 16882  82.5229 142.0745 0019592  30.5577  32.2144 14.85625347116932
AJISAI (EGS)            
1 16908U 86061A   26052.49903669 -.00000077  00000+0  14403-3 0  9995
2 16908  50.0085 143.1345 0011233 245.2564 208.9353 12.44515393465982
COSMOS 1812             
1 17295U 87003A   26052.50211941  .00533763  13256-3  79893-3 0  9996
2 17295  82.4738 214.1277 0004430 294.7868  65.2952 16.04742280141871
SL-14 R/B               
1 17567U 87024B   26052.14264771  .00000401  00000+0  42872-4 0  9995
2 17567  82.5270 108.3182 0017154 319.2822  40.7111 14.86115329 85670
COSMOS 1833             
1 17589U 87027A   26052.29552165 -.00000072  00000+0 -12554-4 0  9995
2 17589  70.9233   0.4715 0024823 236.9789 122.8947 14.13057238  8001
SL-16 R/B               
1 17590U 87027B   26052.17552306  .00000251  00000+0  14799-3 0  9990
2 17590  71.0038 311.2954 0004300 173.1382 186.9802 14.17165534 13005
SL-14 R/B               
1 17912U 87038B   26052.19645999  .00000427  00000+0  46742-4 0  9992
2 17912  82.5031 312.3431 0018237 215.6864 144.3134 14.85352882 76785
COSMOS 1844             
1 17973U 87041A   26052.48951443  .00000171  00000+0  11395-3 0  9990
2 17973  70.8984  68.3466 0029193  43.3748 316.9664 14.14551370  1299
SL-14 R/B               
1 18153U 87055B   26052.31101141  .00000529  00000+0  58085-4 0  9995
2 18153  82.5016   4.4637 0022211  69.1328 291.2263 14.85607116 67505
COSMOS 1867             
1 18187U 87060A   26052.23337368 -.00000032  00000+0  25775-4 0  9991
2 18187  65.0126 352.7887 0014264 277.7452  82.2013 14.31500200 17581
SL-14 R/B               
1 18749U 88001B   26052.43987673  .00000509  00000+0  56064-4 0  9996
2 18749  82.5120 210.6419 0016715 294.1505  65.7963 14.85505760 39614
